{
  "type": "FeatureCollection",
  "features": [
    {
      "type": "Feature",
      "properties": {
        "norad_id": 41890,
        "name": "CYGFM07",
        "group": "weather",
        "lat": -1.4969546240279585,
        "lon": -150.18506220342263,
        "alt_km": 409.99318430261064,
        "timestamp": "2025-12-11T18:59:45.708477+00:00",
        "meta_object_name": "CYGFM07",
        "meta_object_id": "2016-078G",
        "meta_epoch": "2025-12-11T05:50:43.090656",
        "meta_mean_motion": 15.49905313,
        "meta_eccentricity": 0.00097643,
        "meta_inclination": 34.9483,
        "meta_ra_of_asc_node": 31.2625,
        "meta_arg_of_pericenter": 202.8538,
        "meta_mean_anomaly": 157.175,
        "meta_ephemeris_type": 0,
        "meta_classification_type": "U",
        "meta_norad_cat_id": 41890,
        "meta_element_set_no": 999,
        "meta_rev_at_epoch": 49972,
        "meta_bstar": 0.00060586207,
        "meta_mean_motion_dot": 0.0003508,
        "meta_mean_motion_ddot": 0,
        "tle_line1": "1 41890U 16078G   25345.24355429  .00035080  00000+0  60586-3 0  9990",
        "tle_line2": "2 41890  34.9483  31.2625 0009764 202.8538 157.1750 15.49905313499725"
      },
      "geometry": {
        "type": "Point",
        "coordinates": [
          -150.18506220342263,
          -1.4969546240279585
        ]
      }
    },
    {
      "type": "Feature",
      "properties": {
        "norad_id": 41891,
        "name": "CYGFM03",
        "group": "weather",
        "lat": 9.949332217587584,
        "lon": 44.13865072584673,
        "alt_km": 420.87670186995456,
        "timestamp": "2025-12-11T18:59:45.708488+00:00",
        "meta_object_name": "CYGFM03",
        "meta_object_id": "2016-078H",
        "meta_epoch": "2025-12-11T05:00:24.834528",
        "meta_mean_motion": 15.49798407,
        "meta_eccentricity": 0.00090919,
        "meta_inclination": 34.9435,
        "meta_ra_of_asc_node": 33.4093,
        "meta_arg_of_pericenter": 189.8697,
        "meta_mean_anomaly": 170.1848,
        "meta_ephemeris_type": 0,
        "meta_classification_type": "U",
        "meta_norad_cat_id": 41891,
        "meta_element_set_no": 999,
        "meta_rev_at_epoch": 49969,
        "meta_bstar": 0.00051514977,
        "meta_mean_motion_dot": 0.0002968,
        "meta_mean_motion_ddot": 0,
        "tle_line1": "1 41891U 16078H   25345.20862077  .00029680  00000+0  51515-3 0  9990",
        "tle_line2": "2 41891  34.9435  33.4093 0009091 189.8697 170.1848 15.49798407499692"
      },
      "geometry": {
        "type": "Point",
        "coordinates": [
          44.13865072584673,
          9.949332217587584
        ]
      }
    },
    {
      "type": "Feature",
      "properties": {
        "norad_id": 43010,
        "name": "FENGYUN 3D",
        "group": "weather",
        "lat": -23.771199330160623,
        "lon": 128.089352793701,
        "alt_km": 831.2688224184567,
        "timestamp": "2025-12-11T18:59:45.708498+00:00",
        "meta_object_name": "FENGYUN 3D",
        "meta_object_id": "2017-072A",
        "meta_epoch": "2025-12-11T07:53:22.023168",
        "meta_mean_motion": 14.19684111,
        "meta_eccentricity": 8.454e-05,
        "meta_inclination": 98.9894,
        "meta_ra_of_asc_node": 311.6177,
        "meta_arg_of_pericenter": 186.3632,
        "meta_mean_anomaly": 173.7533,
        "meta_ephemeris_type": 0,
        "meta_classification_type": "U",
        "meta_norad_cat_id": 43010,
        "meta_element_set_no": 999,
        "meta_rev_at_epoch": 41833,
        "meta_bstar": 0.00027634272,
        "meta_mean_motion_dot": 5.38e-06,
        "meta_mean_motion_ddot": 0,
        "tle_line1": "1 43010U 17072A   25345.32872712  .00000538  00000+0  27634-3 0  9996",
        "tle_line2": "2 43010  98.9894 311.6177 0000845 186.3632 173.7533 14.19684111418333"
      },
      "geometry": {
        "type": "Point",
        "coordinates": [
          128.089352793701,
          -23.771199330160623
        ]
      }
    },
    {
      "type": "Feature",
      "properties": {
        "norad_id": 43013,
        "name": "NOAA 20 (JPSS-1)",
        "group": "weather",
        "lat": -3.2389259221113083,
        "lon": -77.4014903575528,
        "alt_km": 830.310955963716,
        "timestamp": "2025-12-11T18:59:45.708510+00:00",
        "meta_object_name": "NOAA 20 (JPSS-1)",
        "meta_object_id": "2017-073A",
        "meta_epoch": "2025-12-11T07:10:11.376192",
        "meta_mean_motion": 14.19525242,
        "meta_eccentricity": 0.00021505,
        "meta_inclination": 98.7597,
        "meta_ra_of_asc_node": 281.6113,
        "meta_arg_of_pericenter": 89.2942,
        "meta_mean_anomaly": 270.8481,
        "meta_ephemeris_type": 0,
        "meta_classification_type": "U",
        "meta_norad_cat_id": 43013,
        "meta_element_set_no": 999,
        "meta_rev_at_epoch": 41781,
        "meta_bstar": 0.00011222392,
        "meta_mean_motion_dot": 1.93e-06,
        "meta_mean_motion_ddot": 0,
        "tle_line1": "1 43013U 17073A   25345.29874278  .00000193  00000+0  11222-3 0  9998",
        "tle_line2": "2 43013  98.7597 281.6113 0002150  89.2942 270.8481 14.19525242417818"
      },
      "geometry": {
        "type": "Point",
        "coordinates": [
          -77.4014903575528,
          -3.2389259221113083
        ]
      }
    },
    {
      "type": "Feature",
      "properties": {
        "norad_id": 43226,
        "name": "GOES 17",
        "group": "weather",
        "lat": -0.07298739727335869,
        "lon": -83.81171686883638,
        "alt_km": 35772.06203958272,
        "timestamp": "2025-12-11T18:59:45.708522+00:00",
        "meta_object_name": "GOES 17",
        "meta_object_id": "2018-022A",
        "meta_epoch": "2025-12-11T04:31:28.917696",
        "meta_mean_motion": 1.00271639,
        "meta_eccentricity": 0.00033358,
        "meta_inclination": 0.4562,
        "meta_ra_of_asc_node": 89.1254,
        "meta_arg_of_pericenter": 187.7299,
        "meta_mean_anomaly": 141.6735,
        "meta_ephemeris_type": 0,
        "meta_classification_type": "U",
        "meta_norad_cat_id": 43226,
        "meta_element_set_no": 999,
        "meta_rev_at_epoch": 2853,
        "meta_bstar": 0,
        "meta_mean_motion_dot": -1.77e-06,
        "meta_mean_motion_ddot": 0,
        "tle_line1": "1 43226U 18022A   25345.18852914 -.00000177  00000+0  00000+0 0  9991",
        "tle_line2": "2 43226   0.4562  89.1254 0003335 187.7299 141.6735  1.00271639 28536"
      },
      "geometry": {
        "type": "Point",
        "coordinates": [
          -83.81171686883638,
          -0.07298739727335869
        ]
      }
    },
    {
      "type": "Feature",
      "properties": {
        "norad_id": 43491,
        "name": "FENGYUN 2H",
        "group": "weather",
        "lat": 0.1826253415046121,
        "lon": 85.02964101145207,
        "alt_km": 35797.99753531391,
        "timestamp": "2025-12-11T18:59:45.708535+00:00",
        "meta_object_name": "FENGYUN 2H",
        "meta_object_id": "2018-050A",
        "meta_epoch": "2025-12-11T01:54:12.536928",
        "meta_mean_motion": 1.00271109,
        "meta_eccentricity": 0.00029161,
        "meta_inclination": 2.5468,
        "meta_ra_of_asc_node": 81.3429,
        "meta_arg_of_pericenter": 165.4782,
        "meta_mean_anomaly": 301.137,
        "meta_ephemeris_type": 0,
        "meta_classification_type": "U",
        "meta_norad_cat_id": 43491,
        "meta_element_set_no": 999,
        "meta_rev_at_epoch": 2755,
        "meta_bstar": 0,
        "meta_mean_motion_dot": -1.24e-06,
        "meta_mean_motion_ddot": 0,
        "tle_line1": "1 43491U 18050A   25345.07931177 -.00000124  00000+0  00000+0 0  9995",
        "tle_line2": "2 43491   2.5468  81.3429 0002916 165.4782 301.1370  1.00271109 27551"
      },
      "geometry": {
        "type": "Point",
        "coordinates": [
          85.02964101145207,
          0.1826253415046121
        ]
      }
    },
    {
      "type": "Feature",
      "properties": {
        "norad_id": 43689,
        "name": "METOP-C",
        "group": "weather",
        "lat": 47.96535206766148,
        "lon": -126.65314519223804,
        "alt_km": 816.0416497149254,
        "timestamp": "2025-12-11T18:59:45.708547+00:00",
        "meta_object_name": "METOP-C",
        "meta_object_id": "2018-087A",
        "meta_epoch": "2025-12-11T06:33:20.279232",
        "meta_mean_motion": 14.21483472,
        "meta_eccentricity": 0.0001295,
        "meta_inclination": 98.6931,
        "meta_ra_of_asc_node": 43.0654,
        "meta_arg_of_pericenter": 41.0714,
        "meta_mean_anomaly": 319.0561,
        "meta_ephemeris_type": 0,
        "meta_classification_type": "U",
        "meta_norad_cat_id": 43689,
        "meta_element_set_no": 999,
        "meta_rev_at_epoch": 36813,
        "meta_bstar": 0.00012448456,
        "meta_mean_motion_dot": 2.29e-06,
        "meta_mean_motion_ddot": 0,
        "tle_line1": "1 43689U 18087A   25345.27315138  .00000229  00000+0  12448-3 0  9997",
        "tle_line2": "2 43689  98.6931  43.0654 0001295  41.0714 319.0561 14.21483472368136"
      },
      "geometry": {
        "type": "Point",
        "coordinates": [
          -126.65314519223804,
          47.96535206766148
        ]
      }
    }
  ]
}